QIANFAN-73              
1 63159U 25046A   25327.42260365  .00000037  00000+0  38123-4 0  9998
2 63159  88.9750 322.0242 0015010 172.6395 187.4979 13.50974004 44802
QIANFAN-74              
1 63160U 25046B   25327.40605222  .00000035  00000+0  35116-4 0  9990
2 63160  88.9751 321.9145 0002012  85.2777 274.8604 13.50976144 44865
QIANFAN-75              
1 63161U 25046C   25327.39338179  .00000103  00000+0  14145-3 0  9997
2 63161  88.9753 322.1492 0016007 176.2878 183.8395 13.50989277 44731
QIANFAN-76              
1 63162U 25046D   25327.38976083 -.00000109  00000+0 -18729-3 0  9999
2 63162  88.9749 322.1305 0013551 175.9395 184.1868 13.50965408 44741
QIANFAN-77              
1 63163U 25046E   25327.40552308  .00000159  00000+0  10574-3 0  9996
2 63163  88.9753 320.2941 0016147 135.2289 225.0194 13.96076342 45756
QIANFAN-78              
1 63164U 25046F   25327.43080840  .00000007  00000+0 -83120-5 0  9999
2 63164  88.9751 321.9903 0014855 178.5608 181.5588 13.50974647 44825
QIANFAN-79              
1 63165U 25046G   25327.38542632  .00000036  00000+0  37370-4 0  9992
2 63165  88.9755 322.1017 0014607 176.8367 183.2879 13.50975610 44763
QIANFAN-80              
1 63166U 25046H   25327.40192955  .00000078  00000+0  10227-3 0  9992
2 63166  88.9752 321.8072 0013439 180.6470 179.4666 13.50979905 44928
